QIANFAN-57              
1 62787U 25016C   25264.31727211  .00000069  00000+0  88887-4 0  9994
2 62787  88.9768 111.7118 0002373  66.2750 293.8650 13.50965295 36073
QIANFAN-58              
1 62788U 25016D   25264.28839027  .00000062  00000+0  77671-4 0  9992
2 62788  88.9738 111.5719 0012548 216.4586 143.5712 13.50971905 36117
QIANFAN-59              
1 62789U 25016E   25264.31110178  .00000087  00000+0  11844-3 0  9992
2 62789  88.9761 111.6231 0012934 220.6294 139.3892 13.49480658 36116
QIANFAN-60              
1 62790U 25016F   25264.28280851  .00000067  00000+0  83624-4 0  9990
2 62790  88.9743 111.6163 0014096 217.6743 142.3423 13.52523413 36090
QIANFAN-61              
1 62791U 25016G   25264.30480027  .00000078  00000+0  10273-3 0  9992
2 62791  88.9810 111.7182 0013407 216.3039 143.7203 13.50971538 36114
QIANFAN-62              
1 62792U 25016H   25264.30893244  .00000079  00000+0  10394-3 0  9997
2 62792  88.9756 111.6308 0014776 217.1781 142.8348 13.50965524 36103
QIANFAN-63              
1 62793U 25016J   25264.25687385  .00000073  00000+0  97207-4 0  9992
2 62793  88.9763 111.5815 0014429 223.7512 136.2496 13.49732095 36131
QIANFAN-64              
1 62794U 25016K   25264.30292976  .00000071  00000+0  89060-4 0  9993
2 62794  88.9749 111.5632 0012672 213.2211 146.8146 13.52420802 36134
